GPS BIIR-08             
1 27663U 03005A   26065.41226067  .00000020  00000+0  00000+0 0  9999
2 27663  54.9069 219.0498 0148732  52.7313 318.1949  2.00566200169257
GPS BIIR-11             
1 28190U 04009A   26064.93315625 -.00000023  00000+0  00000+0 0  9999
2 28190  54.9146 279.8578 0111025 169.1048  11.7386  2.00558087160879
GPS BIIR-13             
1 28474U 04045A   26065.38499286 -.00000095  00000+0  00000+0 0  9999
2 28474  55.1936 329.0394 0170812 312.9081 257.6882  2.00573556156361
GPS BIIR-14M            
1 28874U 05038A   26065.65681979 -.00000017  00000+0  00000+0 0  9992
2 28874  54.9613 277.3140 0128744 295.3788  71.8812  2.00572910149783
METEOSAT-9 (MSG-2)      
1 28912U 05049B   26066.08982205  .00000123  00000+0  00000+0 0  9998
2 28912   9.1309  55.1553 0001569 224.3730 323.3977  1.00278827  5972
GPS BIIR-16M            
1 29601U 06052A   26065.70683818  .00000023  00000+0  00000+0 0  9994
2 29601  54.9563 218.0660 0087831  89.3999 271.5620  2.00551839141359
GPS BIIR-17M            
1 32260U 07047A   26065.01635843 -.00000015  00000+0  00000+0 0  9995
2 32260  54.0170  84.3168 0163613  85.9747 275.9459  2.00560687134746
GPS BIIR-18M            
1 32384U 07062A   26065.07949970 -.00000020  00000+0  00000+0 0  9990
2 32384  55.1135 278.2961 0032970 160.6738  12.9295  2.00553677133447
GOES 14                 
1 35491U 09033A   26066.15739094  .00000121  00000+0  00000+0 0  9997
2 35491   1.4261  84.3808 0001762 257.9935  79.3090  1.00100668  5561
GOES 15                 
1 36411U 10008A   26066.09337539  .00000019  00000+0  00000+0 0  9991
2 36411   1.0152  85.0941 0002107  17.4335 159.3498  1.00269918 58611
GSAT0101 (GALILEO-PFM)  
1 37846U 11060A   26053.46432651 -.00000082  00000+0  00000+0 0  9992
2 37846  57.0318 344.8758 0003975 357.0591   2.9533  1.70475478 89166
GSAT0102 (GALILEO-FM2)  
1 37847U 11060B   26060.06318653 -.00000106  00000+0  00000+0 0  9999
2 37847  57.0301 344.6971 0005422 341.2092 154.1953  1.70475778 89286
LUCH 5A                 
1 37951U 11074B   26065.82856353 -.00000049  00000+0  00000+0 0  9999
2 37951   8.4932  75.3103 0003865 248.4778 306.1640  1.00276047 52020
METEOSAT-10 (MSG-3)     
1 38552U 12035B   26065.79554338 -.00000008  00000+0  00000+0 0  9994
2 38552   4.4292  61.4529 0002490 283.3598 106.3340  1.00267966 49834
SARSAT 13 (METOP-B)     
1 38771U 12049A   26066.12212548  .00000124  00000+0  76748-4 0  9999
2 38771  98.6647 119.5956 0001185 280.0234  80.0809 14.21443608698762
GPS BIIF-3              
1 38833U 12053A   26065.11266852  .00000008  00000+0  00000+0 0  9992
2 38833  53.5660 147.8234 0176954  64.7855 297.0886  2.00565873 97370
GSAT0103 (GALILEO-FM3)  
1 38857U 12055A   26064.64990116  .00000009  00000+0  00000+0 0  9995
2 38857  55.7393 104.3859 0005425 285.5287  74.4915  1.70473457 83254
